[{"OBJECT_NAME":"HORS 3 (RS81S)","OBJECT_ID":"2024-199U","EPOCH":"2026-04-05T20:06:06.905952","MEAN_MOTION":15.50393076,"ECCENTRICITY":0.0007435,"INCLINATION":97.3075,"RA_OF_ASC_NODE":330.4595,"ARG_OF_PERICENTER":171.8094,"MEAN_ANOMALY":188.3281,"EPHEMERIS_TYPE":0,"CLASSIFICATION_TYPE":"U","NORAD_CAT_ID":61753,"ELEMENT_SET_NO":999,"REV_AT_EPOCH":12633,"BSTAR":0.00064867,"MEAN_MOTION_DOT":0.00036921,"MEAN_MOTION_DDOT":0},{"OBJECT_NAME":"HORS 4 (RS82S)","OBJECT_ID":"2024-199V","EPOCH":"2026-04-05T20:27:24.257376","MEAN_MOTION":15.53704002,"ECCENTRICITY":0.0007099,"INCLINATION":97.3042,"RA_OF_ASC_NODE":331.2865,"ARG_OF_PERICENTER":166.9169,"MEAN_ANOMALY":193.227,"EPHEMERIS_TYPE":0,"CLASSIFICATION_TYPE":"U","NORAD_CAT_ID":61754,"ELEMENT_SET_NO":999,"REV_AT_EPOCH":12639,"BSTAR":0.00072397,"MEAN_MOTION_DOT":0.0004645,"MEAN_MOTION_DDOT":0},{"OBJECT_NAME":"HORIZON (RS59S)","OBJECT_ID":"2024-199Y","EPOCH":"2026-04-05T19:38:54.338208","MEAN_MOTION":15.80349724,"ECCENTRICITY":0.0006603,"INCLINATION":97.2972,"RA_OF_ASC_NODE":336.0031,"ARG_OF_PERICENTER":145.2457,"MEAN_ANOMALY":214.9243,"EPHEMERIS_TYPE":0,"CLASSIFICATION_TYPE":"U","NORAD_CAT_ID":61757,"ELEMENT_SET_NO":999,"REV_AT_EPOCH":12669,"BSTAR":0.0012201,"MEAN_MOTION_DOT":0.00235186,"MEAN_MOTION_DDOT":0},{"OBJECT_NAME":"ARCTICSAT 1 (RS74S)","OBJECT_ID":"2024-199AD","EPOCH":"2026-04-05T19:17:35.896416","MEAN_MOTION":15.72669911,"ECCENTRICITY":0.0006813,"INCLINATION":97.3007,"RA_OF_ASC_NODE":335.2761,"ARG_OF_PERICENTER":142.9138,"MEAN_ANOMALY":217.2598,"EPHEMERIS_TYPE":0,"CLASSIFICATION_TYPE":"U","NORAD_CAT_ID":61762,"ELEMENT_SET_NO":999,"REV_AT_EPOCH":12664,"BSTAR":0.0012076,"MEAN_MOTION_DOT":0.00164953,"MEAN_MOTION_DDOT":0},{"OBJECT_NAME":"SIT-2086","OBJECT_ID":"2024-199AF","EPOCH":"2026-04-05T19:13:07.062816","MEAN_MOTION":15.49156354,"ECCENTRICITY":0.0007226,"INCLINATION":97.3063,"RA_OF_ASC_NODE":331.1114,"ARG_OF_PERICENTER":161.28,"MEAN_ANOMALY":198.8718,"EPHEMERIS_TYPE":0,"CLASSIFICATION_TYPE":"U","NORAD_CAT_ID":61764,"ELEMENT_SET_NO":999,"REV_AT_EPOCH":12321,"BSTAR":0.00056369,"MEAN_MOTION_DOT":0.0003068,"MEAN_MOTION_DDOT":0},{"OBJECT_NAME":"HYPERVIEW 1G (RS66S)","OBJECT_ID":"2024-199AP","EPOCH":"2026-04-05T19:50:09.125664","MEAN_MOTION":15.62297695,"ECCENTRICITY":0.0008395,"INCLINATION":97.3018,"RA_OF_ASC_NODE":332.6764,"ARG_OF_PERICENTER":166.4499,"MEAN_ANOMALY":193.6986,"EPHEMERIS_TYPE":0,"CLASSIFICATION_TYPE":"U","NORAD_CAT_ID":61772,"ELEMENT_SET_NO":999,"REV_AT_EPOCH":12333,"BSTAR":0.00099164,"MEAN_MOTION_DOT":0.00088289,"MEAN_MOTION_DDOT":0},{"OBJECT_NAME":"ALTAIR (RS65S)","OBJECT_ID":"2024-199AW","EPOCH":"2026-04-05T19:33:21.442464","MEAN_MOTION":15.35669975,"ECCENTRICITY":0.001256,"INCLINATION":97.3129,"RA_OF_ASC_NODE":325.6739,"ARG_OF_PERICENTER":198.832,"MEAN_ANOMALY":161.2461,"EPHEMERIS_TYPE":0,"CLASSIFICATION_TYPE":"U","NORAD_CAT_ID":61779,"ELEMENT_SET_NO":999,"REV_AT_EPOCH":12600,"BSTAR":0.00039169,"MEAN_MOTION_DOT":0.00013548,"MEAN_MOTION_DDOT":0},{"OBJECT_NAME":"ASRTU-1 (AO-123)","OBJECT_ID":"2024-199AY","EPOCH":"2026-04-05T19:28:44.782752","MEAN_MOTION":15.34625703,"ECCENTRICITY":0.0013422,"INCLINATION":97.3101,"RA_OF_ASC_NODE":325.148,"ARG_OF_PERICENTER":201.7555,"MEAN_ANOMALY":158.312,"EPHEMERIS_TYPE":0,"CLASSIFICATION_TYPE":"U","NORAD_CAT_ID":61781,"ELEMENT_SET_NO":999,"REV_AT_EPOCH":12282,"BSTAR":0.00028759,"MEAN_MOTION_DOT":9.599e-5,"MEAN_MOTION_DDOT":0},{"OBJECT_NAME":"TUSUR GO (RS78S)","OBJECT_ID":"2024-199AZ","EPOCH":"2026-04-05T17:56:38.076288","MEAN_MOTION":15.82533528,"ECCENTRICITY":0.000691,"INCLINATION":97.292,"RA_OF_ASC_NODE":334.9699,"ARG_OF_PERICENTER":155.8669,"MEAN_ANOMALY":204.2925,"EPHEMERIS_TYPE":0,"CLASSIFICATION_TYPE":"U","NORAD_CAT_ID":61782,"ELEMENT_SET_NO":999,"REV_AT_EPOCH":12348,"BSTAR":0.0015038,"MEAN_MOTION_DOT":0.00323738,"MEAN_MOTION_DDOT":0},{"OBJECT_NAME":"SAMSAT-IONOSPHERE (RS75S)","OBJECT_ID":"2024-199BB","EPOCH":"2026-04-05T20:07:05.835936","MEAN_MOTION":15.51944026,"ECCENTRICITY":0.0010117,"INCLINATION":97.3058,"RA_OF_ASC_NODE":330.3049,"ARG_OF_PERICENTER":176.261,"MEAN_ANOMALY":183.872,"EPHEMERIS_TYPE":0,"CLASSIFICATION_TYPE":"U","NORAD_CAT_ID":61784,"ELEMENT_SET_NO":999,"REV_AT_EPOCH":12632,"BSTAR":0.00071566,"MEAN_MOTION_DOT":0.00043127,"MEAN_MOTION_DDOT":0},{"OBJECT_NAME":"RTU MIREA 1 (RS51S)","OBJECT_ID":"2024-199BC","EPOCH":"2026-04-05T19:11:31.545888","MEAN_MOTION":15.54224153,"ECCENTRICITY":0.0010191,"INCLINATION":97.3055,"RA_OF_ASC_NODE":330.7963,"ARG_OF_PERICENTER":174.0845,"MEAN_ANOMALY":186.0531,"EPHEMERIS_TYPE":0,"CLASSIFICATION_TYPE":"U","NORAD_CAT_ID":61785,"ELEMENT_SET_NO":999,"REV_AT_EPOCH":12320,"BSTAR":0.00088862,"MEAN_MOTION_DOT":0.00058272,"MEAN_MOTION_DDOT":0},{"OBJECT_NAME":"TEVEL2-4","OBJECT_ID":"2025-052D","EPOCH":"2026-04-05T14:43:13.597248","MEAN_MOTION":15.32153971,"ECCENTRICITY":0.000348,"INCLINATION":97.3981,"RA_OF_ASC_NODE":351.994,"ARG_OF_PERICENTER":45.2437,"MEAN_ANOMALY":314.9087,"EPHEMERIS_TYPE":0,"CLASSIFICATION_TYPE":"U","NORAD_CAT_ID":63213,"ELEMENT_SET_NO":999,"REV_AT_EPOCH":5899,"BSTAR":0.00076597,"MEAN_MOTION_DOT":0.00023752,"MEAN_MOTION_DDOT":0},{"OBJECT_NAME":"TEVEL2-5","OBJECT_ID":"2025-052E","EPOCH":"2026-04-05T16:36:18.335232","MEAN_MOTION":15.32020122,"ECCENTRICITY":0.0003509,"INCLINATION":97.3978,"RA_OF_ASC_NODE":352.0391,"ARG_OF_PERICENTER":45.3901,"MEAN_ANOMALY":314.7627,"EPHEMERIS_TYPE":0,"CLASSIFICATION_TYPE":"U","NORAD_CAT_ID":63214,"ELEMENT_SET_NO":999,"REV_AT_EPOCH":5900,"BSTAR":0.00075837,"MEAN_MOTION_DOT":0.00023417,"MEAN_MOTION_DDOT":0},{"OBJECT_NAME":"TEVEL2-6","OBJECT_ID":"2025-052F","EPOCH":"2026-04-05T15:17:25.505664","MEAN_MOTION":15.31977078,"ECCENTRICITY":0.0003601,"INCLINATION":97.3981,"RA_OF_ASC_NODE":351.9696,"ARG_OF_PERICENTER":44.269,"MEAN_ANOMALY":315.8839,"EPHEMERIS_TYPE":0,"CLASSIFICATION_TYPE":"U","NORAD_CAT_ID":63215,"ELEMENT_SET_NO":999,"REV_AT_EPOCH":5899,"BSTAR":0.00077041,"MEAN_MOTION_DOT":0.00023759,"MEAN_MOTION_DDOT":0},{"OBJECT_NAME":"TEVEL2-1","OBJECT_ID":"2025-052H","EPOCH":"2026-04-05T15:25:54.584832","MEAN_MOTION":15.31523742,"ECCENTRICITY":0.0004089,"INCLINATION":97.3954,"RA_OF_ASC_NODE":351.6804,"ARG_OF_PERICENTER":53.1002,"MEAN_ANOMALY":307.0613,"EPHEMERIS_TYPE":0,"CLASSIFICATION_TYPE":"U","NORAD_CAT_ID":63217,"ELEMENT_SET_NO":999,"REV_AT_EPOCH":5898,"BSTAR":0.00075661,"MEAN_MOTION_DOT":0.00023004,"MEAN_MOTION_DDOT":0},{"OBJECT_NAME":"TEVEL2-3","OBJECT_ID":"2025-052J","EPOCH":"2026-04-05T16:55:32.197728","MEAN_MOTION":15.31569015,"ECCENTRICITY":0.0004146,"INCLINATION":97.3957,"RA_OF_ASC_NODE":351.7566,"ARG_OF_PERICENTER":53.7648,"MEAN_ANOMALY":306.3976,"EPHEMERIS_TYPE":0,"CLASSIFICATION_TYPE":"U","NORAD_CAT_ID":63218,"ELEMENT_SET_NO":999,"REV_AT_EPOCH":5899,"BSTAR":0.00076533,"MEAN_MOTION_DOT":0.00023304,"MEAN_MOTION_DDOT":0}]
