HORS 3 (RS81S)          
1 61753U 24199U   26095.83757993  .00036921  00000+0  64867-3 0  9994
2 61753  97.3075 330.4595 0007435 171.8094 188.3281 15.50393076126338
HORS 4 (RS82S)          
1 61754U 24199V   26095.85236409  .00046450  00000+0  72397-3 0  9996
2 61754  97.3042 331.2865 0007099 166.9169 193.2270 15.53704002126393
HORIZON (RS59S)         
1 61757U 24199Y   26095.81868447  .00235186  00000+0  12201-2 0  9991
2 61757  97.2972 336.0031 0006603 145.2457 214.9243 15.80349724126695
ARCTICSAT 1 (RS74S)     
1 61762U 24199AD  26095.80388769  .00164953  00000+0  12076-2 0  9993
2 61762  97.3007 335.2761 0006813 142.9138 217.2598 15.72669911126643
SIT-2086                
1 61764U 24199AF  26095.80077619  .00030680  00000+0  56369-3 0  9997
2 61764  97.3063 331.1114 0007226 161.2800 198.8718 15.49156354123217
HYPERVIEW 1G (RS66S)    
1 61772U 24199AP  26095.82649451  .00088289  00000+0  99164-3 0  9995
2 61772  97.3018 332.6764 0008395 166.4499 193.6986 15.62297695123334
ALTAIR (RS65S)          
1 61779U 24199AW  26095.81483151  .00013548  00000+0  39169-3 0  9999
2 61779  97.3129 325.6739 0012560 198.8320 161.2461 15.35669975126009
ASRTU-1 (AO-123)        
1 61781U 24199AY  26095.81162943  .00009599  00000+0  28759-3 0  9999
2 61781  97.3101 325.1480 0013422 201.7555 158.3120 15.34625703122827
TUSUR GO (RS78S)        
1 61782U 24199AZ  26095.74766292  .00323738  00000+0  15038-2 0  9998
2 61782  97.2920 334.9699 0006910 155.8669 204.2925 15.82533528123488
SAMSAT-IONOSPHERE (RS7*)
1 61784U 24199BB  26095.83826199  .00043127  00000+0  71566-3 0  9993
2 61784  97.3058 330.3049 0010117 176.2610 183.8720 15.51944026126325
RTU MIREA 1 (RS51S)     
1 61785U 24199BC  26095.79967067  .00058272  00000+0  88862-3 0  9993
2 61785  97.3055 330.7963 0010191 174.0845 186.0531 15.54224153123204
TEVEL2-4                
1 63213U 25052D   26095.61335182  .00023752  00000+0  76597-3 0  9995
2 63213  97.3981 351.9940 0003480  45.2437 314.9087 15.32153971 58995
TEVEL2-5                
1 63214U 25052E   26095.69187888  .00023417  00000+0  75837-3 0  9996
2 63214  97.3978 352.0391 0003509  45.3901 314.7627 15.32020122 59005
TEVEL2-6                
1 63215U 25052F   26095.63710076  .00023759  00000+0  77041-3 0  9990
2 63215  97.3981 351.9696 0003601  44.2690 315.8839 15.31977078 58996
TEVEL2-1                
1 63217U 25052H   26095.64299288  .00023004  00000+0  75661-3 0  9999
2 63217  97.3954 351.6804 0004089  53.1002 307.0613 15.31523742 58980
TEVEL2-3                
1 63218U 25052J   26095.70523377  .00023304  00000+0  76533-3 0  9998
2 63218  97.3957 351.7566 0004146  53.7648 306.3976 15.31569015 58994
